[{"OBJECT_NAME":"STARLINK-2354","OBJECT_ID":"2021-021AL","EPOCH":"2026-03-09T20:56:32.630496","MEAN_MOTION":15.29905417,"ECCENTRICITY":0.00010447,"INCLINATION":53.1533,"RA_OF_ASC_NODE":267.2753,"ARG_OF_PERICENTER":112.155,"MEAN_ANOMALY":247.9561,"EPHEMERIS_TYPE":0,"CLASSIFICATION_TYPE":"U","NORAD_CAT_ID":47894,"ELEMENT_SET_NO":999,"REV_AT_EPOCH":27621,"BSTAR":0.00060374022,"MEAN_MOTION_DOT":0.00017403,"MEAN_MOTION_DDOT":0},{"OBJECT_NAME":"OBJECT AL","OBJECT_ID":"2023-085AL","EPOCH":"2026-03-09T22:26:04.970400","MEAN_MOTION":15.31857284,"ECCENTRICITY":0.000802,"INCLINATION":97.4839,"RA_OF_ASC_NODE":180.0127,"ARG_OF_PERICENTER":78.7242,"MEAN_ANOMALY":281.49,"EPHEMERIS_TYPE":0,"CLASSIFICATION_TYPE":"U","NORAD_CAT_ID":57038,"ELEMENT_SET_NO":999,"REV_AT_EPOCH":15154,"BSTAR":0.0006591637,"MEAN_MOTION_DOT":0.00020246,"MEAN_MOTION_DDOT":0}]
